{
    "links": {
        "self": "http://www.neowsapp.com/rest/v1/neo/3775708?api_key=iIulBulltgU6a56xZRHN4H3l9WmuAYTsLGpBGhQ2"
    },
    "id": "3775708",
    "neo_reference_id": "3775708",
    "name": "(2017 KC36)",
    "designation": "2017 KC36",
    "nasa_jpl_url": "http://ssd.jpl.nasa.gov/sbdb.cgi?sstr=3775708",
    "absolute_magnitude_h": 27.39,
    "estimated_diameter": {
        "kilometers": {
            "estimated_diameter_min": 0.0088420909,
            "estimated_diameter_max": 0.0197715164
        },
        "meters": {
            "estimated_diameter_min": 8.8420909266,
            "estimated_diameter_max": 19.771516375
        },
        "miles": {
            "estimated_diameter_min": 0.0054942189,
            "estimated_diameter_max": 0.0122854469
        },
        "feet": {
            "estimated_diameter_min": 29.0094855955,
            "estimated_diameter_max": 64.8671817838
        }
    },
    "is_potentially_hazardous_asteroid": false,
    "close_approach_data": [
        {
            "close_approach_date": "2017-05-26",
            "close_approach_date_full": "2017-May-26 23:24",
            "epoch_date_close_approach": 1495841040000,
            "relative_velocity": {
                "kilometers_per_second": "12.7047045382",
                "kilometers_per_hour": "45736.936337547",
                "miles_per_hour": "28419.1535815164"
            },
            "miss_distance": {
                "astronomical": "0.008247068",
                "lunar": "3.208109452",
                "kilometers": "1233743.80654516",
                "miles": "766612.853076808"
            },
            "orbiting_body": "Moon"
        },
        {
            "close_approach_date": "2017-05-27",
            "close_approach_date_full": "2017-May-27 04:49",
            "epoch_date_close_approach": 1495860540000,
            "relative_velocity": {
                "kilometers_per_second": "12.4954385226",
                "kilometers_per_hour": "44983.5786812531",
                "miles_per_hour": "27951.0464311375"
            },
            "miss_distance": {
                "astronomical": "0.0080551354",
                "lunar": "3.1334476706",
                "kilometers": "1205031.098401598",
                "miles": "748771.6035461324"
            },
            "orbiting_body": "Earth"
        }
    ],
    "orbital_data": {
        "orbit_id": "1",
        "orbit_determination_date": "2017-06-23 06:18:58",
        "first_observation_date": "2017-05-30",
        "last_observation_date": "2017-05-31",
        "data_arc_in_days": 1,
        "observations_used": 5,
        "orbit_uncertainty": "9",
        "minimum_orbit_intersection": ".00180117",
        "jupiter_tisserand_invariant": "3.527",
        "epoch_osculation": "2457904.5",
        "eccentricity": ".5736411549172076",
        "semi_major_axis": "2.08504720789749",
        "inclination": "6.039855216697043",
        "ascending_node_longitude": "243.9555550382018",
        "orbital_period": "1099.695037869621",
        "perihelion_distance": ".8889783195022748",
        "perihelion_argument": "312.6475337271518",
        "aphelion_distance": "3.281116096292705",
        "perihelion_time": "2457864.386665137192",
        "mean_anomaly": "13.1316410944131",
        "mean_motion": ".3273634849688949",
        "equinox": "J2000",
        "orbit_class": {
            "orbit_class_type": "APO",
            "orbit_class_description": "Near-Earth asteroid orbits which cross the Earth’s orbit similar to that of 1862 Apollo",
            "orbit_class_range": "a (semi-major axis) > 1.0 AU; q (perihelion) < 1.017 AU"
        }
    },
    "is_sentry_object": false
}